FENGYUN 1C DEB          
1 32459U 99025DBX 17345.31324946  .00000234  00000-0  77443-4 0  9998
2 32459  98.5992  21.2897 0241474 255.1761 102.2561 14.32463319526247
